COSMOS 2361 [-]         
1 25590U 98076A   16021.92396977  .00000028  00000-0  13871-4 0  9997
2 25590  82.9363 134.5757 0030758 226.4076 267.4410 13.72905673855641
COSMOS 2378 [-]         
1 26818U 01023A   16021.85076688  .00000045  00000-0  31299-4 0  9996
2 26818  82.9274 156.9690 0032872 182.3751 177.7253 13.73893953733189
COSMOS 2389 [-]         
1 27436U 02026A   16022.20098459  .00000043  00000-0  28224-4 0  9999
2 27436  82.9513  99.9842 0047551  60.3108 354.1718 13.74893142685115
COSMOS 2398 [-]         
1 27818U 03023A   16022.42950300  .00000019  00000-0  43238-5 0  9993
2 27818  82.9463  53.8439 0032979  64.5158 295.9401 13.72121591632756
COSMOS 2407 [+]         
1 28380U 04028A   16021.06897670  .00000037  00000-0  21602-4 0  9993
2 28380  82.9589   8.1331 0041042  78.1098 282.4671 13.76018249577420
COSMOS 2414 [+]         
1 28521U 05002A   16022.52130730  .00000035  00000-0  16203-4 0  9991
2 28521  82.9476  35.5859 0040641   0.0097   0.1076 13.87561764557326
COSMOS 2429 [-]         
1 32052U 07038A   16021.91521373  .00000022  00000-0  72474-5 0  9994
2 32052  82.9825 125.1512 0039282  44.4115  93.0330 13.74865017419653
COSMOS 2454 [-]         
1 35635U 09039A   16022.45090080  .00000040  00000-0  20128-4 0  9991
2 35635  82.9527  26.3427 0018651 330.5610  29.4511 13.89587247329987
COSMOS 2463 [+]         
1 36519U 10017A   16021.99050689  .00000009  00000-0 -66254-5 0  9997
2 36519  82.9593 160.3092 0035225 228.1555 131.6588 13.71393101287264
